{
    "links": {
        "self": "http://www.neowsapp.com/rest/v1/neo/3736802?api_key=iIulBulltgU6a56xZRHN4H3l9WmuAYTsLGpBGhQ2"
    },
    "id": "3736802",
    "neo_reference_id": "3736802",
    "name": "(2015 XR378)",
    "designation": "2015 XR378",
    "nasa_jpl_url": "http://ssd.jpl.nasa.gov/sbdb.cgi?sstr=3736802",
    "absolute_magnitude_h": 25.1,
    "estimated_diameter": {
        "kilometers": {
            "estimated_diameter_min": 0.0253837029,
            "estimated_diameter_max": 0.0567596853
        },
        "meters": {
            "estimated_diameter_min": 25.3837029364,
            "estimated_diameter_max": 56.7596852866
        },
        "miles": {
            "estimated_diameter_min": 0.0157726969,
            "estimated_diameter_max": 0.0352688224
        },
        "feet": {
            "estimated_diameter_min": 83.279867942,
            "estimated_diameter_max": 186.2194458756
        }
    },
    "is_potentially_hazardous_asteroid": false,
    "close_approach_data": [
        {
            "close_approach_date": "1952-01-17",
            "close_approach_date_full": "1952-Jan-17 18:48",
            "epoch_date_close_approach": -566629920000,
            "relative_velocity": {
                "kilometers_per_second": "21.541065465",
                "kilometers_per_hour": "77547.8356739057",
                "miles_per_hour": "48185.2093385999"
            },
            "miss_distance": {
                "astronomical": "0.443837793",
                "lunar": "172.652901477",
                "kilometers": "66397188.45830091",
                "miles": "41257299.781576158"
            },
            "orbiting_body": "Earth"
        },
        {
            "close_approach_date": "2015-12-06",
            "close_approach_date_full": "2015-Dec-06 23:09",
            "epoch_date_close_approach": 1449443340000,
            "relative_velocity": {
                "kilometers_per_second": "7.7355523113",
                "kilometers_per_hour": "27847.9883206607",
                "miles_per_hour": "17303.656965135"
            },
            "miss_distance": {
                "astronomical": "0.0288349581",
                "lunar": "11.2167987009",
                "kilometers": "4313648.313299247",
                "miles": "2680376.7711617286"
            },
            "orbiting_body": "Earth"
        }
    ],
    "orbital_data": {
        "orbit_id": "12",
        "orbit_determination_date": "2017-04-06 08:29:50",
        "first_observation_date": "2015-12-14",
        "last_observation_date": "2016-01-04",
        "data_arc_in_days": 21,
        "observations_used": 61,
        "orbit_uncertainty": "8",
        "minimum_orbit_intersection": ".0135037",
        "jupiter_tisserand_invariant": "3.328",
        "epoch_osculation": "2457385.5",
        "eccentricity": ".5715381063738556",
        "semi_major_axis": "2.335250582002703",
        "inclination": ".3590249586743425",
        "ascending_node_longitude": "91.21104498322759",
        "orbital_period": "1303.46285750625",
        "perihelion_distance": "1.000565886456434",
        "perihelion_argument": "329.0000669822192",
        "aphelion_distance": "3.669935277548972",
        "perihelion_time": "2457352.654502285477",
        "mean_anomaly": "9.071512171701126",
        "mean_motion": ".2761873864888963",
        "equinox": "J2000",
        "orbit_class": {
            "orbit_class_type": "APO",
            "orbit_class_description": "Near-Earth asteroid orbits which cross the Earth’s orbit similar to that of 1862 Apollo",
            "orbit_class_range": "a (semi-major axis) > 1.0 AU; q (perihelion) < 1.017 AU"
        }
    },
    "is_sentry_object": false
}